CCSDS_OMM_VERS = 2.0
CREATION_DATE  = 
ORIGINATOR     = 

OBJECT_NAME    = UNKNOWN
OBJECT_ID      = 
CENTER_NAME    = EARTH
REF_FRAME      = TEME
TIME_SYSTEM    = UTC
MEAN_ELEMENT_THEORY = SGP/SGP4

EPOCH          = 2026-03-09T02:53:57.432768
MEAN_MOTION    = 15.04852502
ECCENTRICITY   = .0007482
INCLINATION    = 86.6587
RA_OF_ASC_NODE = 118.2618
ARG_OF_PERICENTER = 183.1315
MEAN_ANOMALY   = 176.9875

EPHEMERIS_TYPE = 0
CLASSIFICATION_TYPE = U
NORAD_CAT_ID   = 82402
ELEMENT_SET_NO = 999
REV_AT_EPOCH   = 46745
BSTAR          = .51144E-3
MEAN_MOTION_DOT = .726E-4
MEAN_MOTION_DDOT = 0

CCSDS_OMM_VERS = 2.0
CREATION_DATE  = 
ORIGINATOR     = 

OBJECT_NAME    = UNKNOWN
OBJECT_ID      = 
CENTER_NAME    = EARTH
REF_FRAME      = TEME
TIME_SYSTEM    = UTC
MEAN_ELEMENT_THEORY = SGP/SGP4

EPOCH          = 2026-03-07T06:53:38.252256
MEAN_MOTION    = 14.58942563
ECCENTRICITY   = .005669
INCLINATION    = 74.0089
RA_OF_ASC_NODE = 179.2804
ARG_OF_PERICENTER = 321.9408
MEAN_ANOMALY   = 37.7757

EPHEMERIS_TYPE = 0
CLASSIFICATION_TYPE = U
NORAD_CAT_ID   = 82432
ELEMENT_SET_NO = 999
REV_AT_EPOCH   = 49523
BSTAR          = .56373E-3
MEAN_MOTION_DOT = .2673E-4
MEAN_MOTION_DDOT = 0

CCSDS_OMM_VERS = 2.0
CREATION_DATE  = 
ORIGINATOR     = 

OBJECT_NAME    = UNKNOWN
OBJECT_ID      = 
CENTER_NAME    = EARTH
REF_FRAME      = TEME
TIME_SYSTEM    = UTC
MEAN_ELEMENT_THEORY = SGP/SGP4

EPOCH          = 2026-03-07T16:41:41.743392
MEAN_MOTION    = 15.05074280
ECCENTRICITY   = .0006664
INCLINATION    = 85.8737
RA_OF_ASC_NODE = 153.9139
ARG_OF_PERICENTER = 326.6675
MEAN_ANOMALY   = 33.4139

EPHEMERIS_TYPE = 0
CLASSIFICATION_TYPE = U
NORAD_CAT_ID   = 82448
ELEMENT_SET_NO = 999
REV_AT_EPOCH   = 44981
BSTAR          = .62595E-3
MEAN_MOTION_DOT = .8933E-4
MEAN_MOTION_DDOT = 0

CCSDS_OMM_VERS = 2.0
CREATION_DATE  = 
ORIGINATOR     = 

OBJECT_NAME    = UNKNOWN
OBJECT_ID      = 
CENTER_NAME    = EARTH
REF_FRAME      = TEME
TIME_SYSTEM    = UTC
MEAN_ELEMENT_THEORY = SGP/SGP4

EPOCH          = 2026-03-07T07:50:46.515264
MEAN_MOTION    = 12.39710322
ECCENTRICITY   = .0094148
INCLINATION    = 102.1920
RA_OF_ASC_NODE = 27.6779
ARG_OF_PERICENTER = 51.0790
MEAN_ANOMALY   = 309.8621

EPHEMERIS_TYPE = 0
CLASSIFICATION_TYPE = U
NORAD_CAT_ID   = 82453
ELEMENT_SET_NO = 999
REV_AT_EPOCH   = 55654
BSTAR          = .4713E-3
MEAN_MOTION_DOT = .18E-6
MEAN_MOTION_DDOT = 0

CCSDS_OMM_VERS = 2.0
CREATION_DATE  = 
ORIGINATOR     = 

OBJECT_NAME    = UNKNOWN
OBJECT_ID      = 
CENTER_NAME    = EARTH
REF_FRAME      = TEME
TIME_SYSTEM    = UTC
MEAN_ELEMENT_THEORY = SGP/SGP4

EPOCH          = 2026-03-07T00:23:02.070816
MEAN_MOTION    = 13.55831722
ECCENTRICITY   = .0044139
INCLINATION    = 99.3511
RA_OF_ASC_NODE = 88.2924
ARG_OF_PERICENTER = 341.8068
MEAN_ANOMALY   = 18.1490

EPHEMERIS_TYPE = 0
CLASSIFICATION_TYPE = U
NORAD_CAT_ID   = 82484
ELEMENT_SET_NO = 999
REV_AT_EPOCH   = 60205
BSTAR          = .33696E-3
MEAN_MOTION_DOT = .195E-5
MEAN_MOTION_DDOT = 0

CCSDS_OMM_VERS = 2.0
CREATION_DATE  = 
ORIGINATOR     = 

OBJECT_NAME    = UNKNOWN
OBJECT_ID      = 
CENTER_NAME    = EARTH
REF_FRAME      = TEME
TIME_SYSTEM    = UTC
MEAN_ELEMENT_THEORY = SGP/SGP4

EPOCH          = 2026-03-08T09:26:42.911808
MEAN_MOTION    = 14.89862793
ECCENTRICITY   = .0006539
INCLINATION    = 74.0048
RA_OF_ASC_NODE = 210.6958
ARG_OF_PERICENTER = 333.5088
MEAN_ANOMALY   = 26.5758

EPHEMERIS_TYPE = 0
CLASSIFICATION_TYPE = U
NORAD_CAT_ID   = 82494
ELEMENT_SET_NO = 999
REV_AT_EPOCH   = 9770
BSTAR          = .40962E-2
MEAN_MOTION_DOT = .39583E-3
MEAN_MOTION_DDOT = 0

CCSDS_OMM_VERS = 2.0
CREATION_DATE  = 
ORIGINATOR     = 

OBJECT_NAME    = UNKNOWN
OBJECT_ID      = 
CENTER_NAME    = EARTH
REF_FRAME      = TEME
TIME_SYSTEM    = UTC
MEAN_ELEMENT_THEORY = SGP/SGP4

EPOCH          = 2026-02-26T18:17:59.837568
MEAN_MOTION    = 14.19147272
ECCENTRICITY   = .0118063
INCLINATION    = 70.9650
RA_OF_ASC_NODE = 202.8689
ARG_OF_PERICENTER = 358.4355
MEAN_ANOMALY   = 1.6382

EPHEMERIS_TYPE = 0
CLASSIFICATION_TYPE = U
NORAD_CAT_ID   = 82500
ELEMENT_SET_NO = 999
REV_AT_EPOCH   = 62973
BSTAR          = .1353E-2
MEAN_MOTION_DOT = .2989E-4
MEAN_MOTION_DDOT = 0

CCSDS_OMM_VERS = 2.0
CREATION_DATE  = 
ORIGINATOR     = 

OBJECT_NAME    = UNKNOWN
OBJECT_ID      = 
CENTER_NAME    = EARTH
REF_FRAME      = TEME
TIME_SYSTEM    = UTC
MEAN_ELEMENT_THEORY = SGP/SGP4

EPOCH          = 2026-03-09T06:46:15.504960
MEAN_MOTION    = 14.36044670
ECCENTRICITY   = .0131941
INCLINATION    = 73.2821
RA_OF_ASC_NODE = 15.6280
ARG_OF_PERICENTER = 141.5737
MEAN_ANOMALY   = 8.6286

EPHEMERIS_TYPE = 0
CLASSIFICATION_TYPE = U
NORAD_CAT_ID   = 82524
ELEMENT_SET_NO = 999
REV_AT_EPOCH   = 58945
BSTAR          = .10101E-2
MEAN_MOTION_DOT = .3213E-4
MEAN_MOTION_DDOT = 0

CCSDS_OMM_VERS = 2.0
CREATION_DATE  = 
ORIGINATOR     = 

OBJECT_NAME    = UNKNOWN
OBJECT_ID      = 
CENTER_NAME    = EARTH
REF_FRAME      = TEME
TIME_SYSTEM    = UTC
MEAN_ELEMENT_THEORY = SGP/SGP4

EPOCH          = 2026-03-07T04:31:16.399200
MEAN_MOTION    = 13.41193905
ECCENTRICITY   = .0238397
INCLINATION    = 99.7799
RA_OF_ASC_NODE = 151.8941
ARG_OF_PERICENTER = 35.0928
MEAN_ANOMALY   = 355.2182

EPHEMERIS_TYPE = 0
CLASSIFICATION_TYPE = U
NORAD_CAT_ID   = 82529
ELEMENT_SET_NO = 999
REV_AT_EPOCH   = 60106
BSTAR          = .63177E-3
MEAN_MOTION_DOT = .372E-5
MEAN_MOTION_DDOT = 0

CCSDS_OMM_VERS = 2.0
CREATION_DATE  = 
ORIGINATOR     = 

OBJECT_NAME    = UNKNOWN
OBJECT_ID      = 
CENTER_NAME    = EARTH
REF_FRAME      = TEME
TIME_SYSTEM    = UTC
MEAN_ELEMENT_THEORY = SGP/SGP4

EPOCH          = 2026-02-28T08:19:35.642784
MEAN_MOTION    = 13.90885057
ECCENTRICITY   = .0011177
INCLINATION    = 99.9959
RA_OF_ASC_NODE = 12.6774
ARG_OF_PERICENTER = 93.7672
MEAN_ANOMALY   = 58.5374

EPHEMERIS_TYPE = 0
CLASSIFICATION_TYPE = U
NORAD_CAT_ID   = 82560
ELEMENT_SET_NO = 999
REV_AT_EPOCH   = 62265
BSTAR          = .10557E-2
MEAN_MOTION_DOT = .1272E-4
MEAN_MOTION_DDOT = 0

CCSDS_OMM_VERS = 2.0
CREATION_DATE  = 
ORIGINATOR     = 

OBJECT_NAME    = UNKNOWN
OBJECT_ID      = 
CENTER_NAME    = EARTH
REF_FRAME      = TEME
TIME_SYSTEM    = UTC
MEAN_ELEMENT_THEORY = SGP/SGP4

EPOCH          = 2026-03-07T01:22:55.877088
MEAN_MOTION    = 14.36124034
ECCENTRICITY   = .0098448
INCLINATION    = 66.7677
RA_OF_ASC_NODE = 285.9003
ARG_OF_PERICENTER = 248.7151
MEAN_ANOMALY   = 110.3417

EPHEMERIS_TYPE = 0
CLASSIFICATION_TYPE = U
NORAD_CAT_ID   = 82597
ELEMENT_SET_NO = 999
REV_AT_EPOCH   = 64108
BSTAR          = .50521E-3
MEAN_MOTION_DOT = .1468E-4
MEAN_MOTION_DDOT = 0

CCSDS_OMM_VERS = 2.0
CREATION_DATE  = 
ORIGINATOR     = 

OBJECT_NAME    = UNKNOWN
OBJECT_ID      = 
CENTER_NAME    = EARTH
REF_FRAME      = TEME
TIME_SYSTEM    = UTC
MEAN_ELEMENT_THEORY = SGP/SGP4

EPOCH          = 2026-03-08T00:57:02.821536
MEAN_MOTION    = 14.49540211
ECCENTRICITY   = .0038347
INCLINATION    = 74.0251
RA_OF_ASC_NODE = 83.5140
ARG_OF_PERICENTER = 3.5421
MEAN_ANOMALY   = 356.6003

EPHEMERIS_TYPE = 0
CLASSIFICATION_TYPE = U
NORAD_CAT_ID   = 82617
ELEMENT_SET_NO = 999
REV_AT_EPOCH   = 64918
BSTAR          = .2325E-3
MEAN_MOTION_DOT = .872E-5
MEAN_MOTION_DDOT = 0

